DBN,School Name,borough,district,school_indentifier,Latitude,Longitude,geometry
01M292,Orchard Collegiate Academy,Manhattan,1,292,40.713362,-73.986051,POINT (-8236089.5231 4970154.115800001)
01M448,University Neighborhood High School,Manhattan,1,448,40.712269,-73.984128,POINT (-8235875.455700001 4969993.595899999)
01M450,East Side Community School,Manhattan,1,450,40.729152,-73.982472,POINT (-8235691.1107 4972473.356399998)
01M539,"New Explorations into Science, Technology and Math High School",Manhattan,1,539,40.719416,-73.979581,POINT (-8235369.286 4971043.264300004)
01M696,Bard High School Early College,Manhattan,1,696,40.718276,-73.976093,POINT (-8234981.0035999995 4970875.826800004)
02M047,47 The American Sign Language and English Secondary School,Manhattan,2,47,40.738374,-73.981329,POINT (-8235563.8725000005 4973828.141599998)
02M135,The Urban Assembly Early College High School of Emergency Medicine,Manhattan,2,135,40.711441,-74.000851,POINT (-8237737.0516 4969871.996100001)
02M139,Stephen T. Mather Building Arts & Craftsmanship High School,Manhattan,2,139,40.763655,-73.990318,POINT (-8236564.523399999 4977543.085000001)
02M260,The Clinton School,Manhattan,2,260,40.736526,-73.992727,POINT (-8236832.692 4973556.640600003)
02M280,Manhattan Early College School for Advertising,Manhattan,2,280,40.711441,-74.000851,POINT (-8237737.0516 4969871.996100001)
02M282,Urban Assembly Maker Academy,Manhattan,2,282,40.711441,-74.000851,POINT (-8237737.0516 4969871.996100001)
02M288,Food and Finance High School,Manhattan,2,288,40.765474,-73.9927,POINT (-8236829.6864 4977810.434299998)
02M294,Essex Street Academy,Manhattan,2,294,40.717329,-73.989329,POINT (-8236454.428400001 4970736.738399997)
02M296,High School of Hospitality Management,Manhattan,2,296,40.765474,-73.9927,POINT (-8236829.6864 4977810.434299998)
02M298,Pace High School,Manhattan,2,298,40.716231,-73.993607,POINT (-8236930.6532000005 4970575.474600002)
02M300,"Urban Assembly School of Design and Construction, The",Manhattan,2,300,40.765474,-73.9927,POINT (-8236829.6864 4977810.434299998)
02M303,"Facing History School, The",Manhattan,2,303,40.765474,-73.9927,POINT (-8236829.6864 4977810.434299998)
02M305,"Urban Assembly Academy of Government and Law, The",Manhattan,2,305,40.717329,-73.989329,POINT (-8236454.428400001 4970736.738399997)
02M308,Lower Manhattan Arts Academy,Manhattan,2,308,40.717329,-73.989329,POINT (-8236454.428400001 4970736.738399997)
02M316,"Urban Assembly School of Business for Young Women, the",Manhattan,2,316,40.705688,-74.013303,POINT (-8239123.2019 4969027.154600002)
02M374,Gramercy Arts High School,Manhattan,2,374,40.735361,-73.987064,POINT (-8236202.289799999 4973385.487300001)
02M376,NYC iSchool,Manhattan,2,376,40.72463,-74.005058,POINT (-8238205.3727 4971809.107299998)
02M392,Manhattan Business Academy,Manhattan,2,392,40.743407,-74.00254,POINT (-8237925.0702 4974567.608499996)
02M393,Business Of Sports School,Manhattan,2,393,40.763655,-73.990318,POINT (-8236564.523399999 4977543.085000001)
02M395,A School Without Walls,Manhattan,2,395,40.708971,-74.012465,POINT (-8239029.916200001 4969509.2619)
02M399,The High School For Language And Diplomacy,Manhattan,2,399,40.735361,-73.987064,POINT (-8236202.289799999 4973385.487300001)
02M400,High School for Environmental Studies,Manhattan,2,400,40.767848,-73.98861,POINT (-8236374.389699999 4978159.366400003)
02M407,Institute for Collaborative Education,Manhattan,2,407,40.732665,-73.98259,POINT (-8235704.2464000005 4972989.421899997)
02M408,Professional Performing Arts High School,Manhattan,2,408,40.761327,-73.988665,POINT (-8236380.5123 4977200.935500003)
02M411,Baruch College Campus High School,Manhattan,2,411,40.741888,-73.985723,POINT (-8236053.010299999 4974344.425499998)
02M412,N.Y.C. Lab School for Collaborative Studies,Manhattan,2,412,40.742512,-74.002222,POINT (-8237889.670600001 4974436.107699998)
02M413,School of the Future High School,Manhattan,2,413,40.739121,-73.985323,POINT (-8236008.4825 4973937.890000001)
02M414,N.Y.C. Museum School,Manhattan,2,414,40.742512,-74.002222,POINT (-8237889.670600001 4974436.107699998)
02M416,Eleanor Roosevelt High School,Manhattan,2,416,40.770288,-73.953276,POINT (-8232441.026799999 4978518.012199998)
02M418,Millennium High School,Manhattan,2,418,40.704697,-74.011202,POINT (-8238889.319599999 4968881.631300002)
02M419,Landmark High School,Manhattan,2,419,40.743407,-74.00254,POINT (-8237925.0702 4974567.608499996)
02M420,High School for Health Professions and Human Services,Manhattan,2,420,40.732665,-73.98259,POINT (-8235704.2464000005 4972989.421899997)
02M422,Quest to Learn,Manhattan,2,422,40.743407,-74.00254,POINT (-8237925.0702 4974567.608499996)
02M425,Leadership and Public Service High School,Manhattan,2,425,40.708971,-74.012465,POINT (-8239029.916200001 4969509.2619)
02M427,Manhattan Academy For Arts & Language,Manhattan,2,427,40.74651,-73.98107,POINT (-8235535.0407 4975023.540600002)
02M432,Murray Hill Academy,Manhattan,2,432,40.74651,-73.98107,POINT (-8235535.0407 4975023.540600002)
02M437,Hudson High School of Learning Technologies,Manhattan,2,437,40.743407,-74.00254,POINT (-8237925.0702 4974567.608499996)
02M438,International High School at Union Square,Manhattan,2,438,40.735361,-73.987064,POINT (-8236202.289799999 4973385.487300001)
02M439,Manhattan Village Academy,Manhattan,2,439,40.741963,-73.991966,POINT (-8236747.9779 4974355.445)
02M449,Vanguard High School,Manhattan,2,449,40.765638,-73.959777,POINT (-8233164.7148 4977834.538800001)
02M459,Manhattan International High School,Manhattan,2,459,40.765638,-73.959777,POINT (-8233164.7148 4977834.538800001)
02M475,Stuyvesant High School,Manhattan,2,475,40.718025,-74.013921,POINT (-8239191.997300001 4970838.961599998)
02M489,High School of Economics and Finance,Manhattan,2,489,40.70927,-74.012328,POINT (-8239014.6654 4969553.171099998)
02M500,Unity Center for Urban Technologies,Manhattan,2,500,40.74651,-73.98107,POINT (-8235535.0407 4975023.540600002)
02M507,Urban Assembly Gateway School for Technology,Manhattan,2,507,40.763655,-73.990318,POINT (-8236564.523399999 4977543.085000001)
02M519,Talent Unlimited High School,Manhattan,2,519,40.765638,-73.959777,POINT (-8233164.7148 4977834.538800001)
02M520,Murry Bergtraum High School for Business Careers,Manhattan,2,520,40.711441,-74.000851,POINT (-8237737.0516 4969871.996100001)
02M529,Jacqueline Kennedy Onassis High School,Manhattan,2,529,40.757626,-73.98346,POINT (-8235801.0943 4976657.0189)
02M531,Repertory Company High School for Theatre Arts,Manhattan,2,531,40.756089,-73.984381,POINT (-8235903.6196 4976431.1428999975)
02M533,Union Square Academy for Health Sciences,Manhattan,2,533,40.735361,-73.987064,POINT (-8236202.289799999 4973385.487300001)
02M534,Harvest Collegiate High School,Manhattan,2,534,40.736416,-73.995731,POINT (-8237167.095799999 4973540.480099998)
02M542,Manhattan Bridges High School,Manhattan,2,542,40.765474,-73.9927,POINT (-8236829.6864 4977810.434299998)
02M543,New Design High School,Manhattan,2,543,40.717329,-73.989329,POINT (-8236454.428400001 4970736.738399997)
02M545,High School for Dual Language and Asian Studies,Manhattan,2,545,40.717329,-73.989329,POINT (-8236454.428400001 4970736.738399997)
02M546,Academy for Software Engineering,Manhattan,2,546,40.735361,-73.987064,POINT (-8236202.289799999 4973385.487300001)
02M551,Urban Assembly New York Harbor School,Manhattan,2,551,40.689493,-74.018941,POINT (-8239750.8212 4966649.272600003)
02M580,Richard R. Green High School of Teaching,Manhattan,2,580,40.705688,-74.013303,POINT (-8239123.2019 4969027.154600002)
02M600,The High School of Fashion Industries,Manhattan,2,600,40.745677,-73.996354,POINT (-8237236.447799999 4974901.143600002)
02M605,Humanities Preparatory Academy,Manhattan,2,605,40.743407,-74.00254,POINT (-8237925.0702 4974567.608499996)
02M615,Chelsea Career and Technical Education High School,Manhattan,2,615,40.72463,-74.005058,POINT (-8238205.3727 4971809.107299998)
02M630,Art and Design High School,Manhattan,2,630,40.759248,-73.967204,POINT (-8233991.4847 4976895.391999997)
02M655,The High School for Climate Justice,Manhattan,2,655,40.783286,-73.945933,POINT (-8231623.607799999 4980428.7579)
03M291,West End Secondary School,Manhattan,3,291,40.772608,-73.988338,POINT (-8236344.1108 4978859.031900004)
03M307,"Urban Assembly School for Media Studies, The",Manhattan,3,307,40.774891,-73.985608,POINT (-8236040.2086 4979194.624499999)
03M402,The Urban Assembly School for Green Careers,Manhattan,3,402,40.786134,-73.974483,POINT (-8234801.7793000005 4980847.472499996)
03M403,The Global Learning Collaborative,Manhattan,3,403,40.786134,-73.974483,POINT (-8234801.7793000005 4980847.472499996)
03M415,Wadleigh Secondary School for the Performing & Visual Arts,Manhattan,3,415,40.80261,-73.954152,POINT (-8232538.5427 4983270.136200003)
03M417,Frank McCourt High School,Manhattan,3,417,40.786134,-73.974483,POINT (-8234801.7793000005 4980847.472499996)
03M479,Beacon High School,Manhattan,3,479,40.760858,-73.996262,POINT (-8237226.2064 4977132.007299997)
03M485,Fiorello H. LaGuardia High School of Music & Art and Performing Arts,Manhattan,3,485,40.774202,-73.985976,POINT (-8236081.1742 4979093.342799999)
03M492,"High School for Law, Advocacy and Community Justice",Manhattan,3,492,40.774891,-73.985608,POINT (-8236040.2086 4979194.624499999)
03M494,High School of Arts and Technology,Manhattan,3,494,40.774891,-73.985608,POINT (-8236040.2086 4979194.624499999)
03M541,Manhattan / Hunter Science High School,Manhattan,3,541,40.774891,-73.985608,POINT (-8236040.2086 4979194.624499999)
03M610,Young Women's Leadership School,Manhattan,3,610,40.797136,-73.966779,POINT (-8233944.173900001 4982465.161700003)
03M859,Special Music School,Manhattan,3,859,40.775256,-73.982976,POINT (-8235747.2157000005 4979248.279200003)
03M860,Frederick Douglass Academy II Secondary School,Manhattan,3,860,40.80261,-73.954152,POINT (-8232538.5427 4983270.136200003)
04M372,Esperanza Preparatory Academy,Manhattan,4,372,40.792556,-73.942285,POINT (-8231217.5143 4981791.704599999)
04M435,Manhattan Center for Science and Mathematics,Manhattan,4,435,40.794184,-73.932868,POINT (-8230169.218599999 4982031.0854)
04M495,Park East High School,Manhattan,4,495,40.790191,-73.944092,POINT (-8231418.6686 4981443.965999998)
04M555,Central Park East High School,Manhattan,4,555,40.793649,-73.948488,POINT (-8231908.029100001 4981952.418399997)
04M680,"Heritage School, The",Manhattan,4,680,40.791966,-73.946879,POINT (-8231728.915999999 4981704.952600002)
05M148,Eagle Academy for Young Men of Harlem,Manhattan,5,148,40.817228,-73.947151,POINT (-8231759.1949000005 4985420.0995000005)
05M157,The Urban Assembly School for Global Commerce,Manhattan,5,157,40.807019,-73.938714,POINT (-8230819.9924 4983918.546300001)
05M304,Mott Hall High School,Manhattan,5,304,40.817228,-73.947151,POINT (-8231759.1949000005 4985420.0995000005)
05M362,Columbia Secondary School,Manhattan,5,362,40.810793,-73.955722,POINT (-8232713.314300001 4984473.6043)
05M369,Urban Assembly School for the Performing Arts,Manhattan,5,369,40.815747,-73.95552,POINT (-8232690.8278 4985202.257700004)
05M499,Frederick Douglass Academy,Manhattan,5,499,40.823988,-73.935746,POINT (-8230489.596100001 4986414.496399999)
05M670,Thurgood Marshall Academy for Learning and Social Change,Manhattan,5,670,40.815237,-73.944299,POINT (-8231441.7117 4985127.242399998)
05M692,"High School for Mathematics, Science and Engineering at City College",Manhattan,5,692,40.820208,-73.950354,POINT (-8232115.7513 4985858.4454)
06M211,Inwood Early College for Health and Information Technologies,Manhattan,6,211,40.865556,-73.925464,POINT (-8229345.009099999 4992531.383699998)
06M293,City College Magnet School of the Arts,Manhattan,6,293,40.860951,-73.930082,POINT (-8229859.0825 4991853.551700003)
06M346,Community Health Academy of the Heights,Manhattan,6,346,40.833695,-73.942074,POINT (-8231194.025900001 4987842.574600004)
06M348,Washington Heights Expeditionary Learning School,Manhattan,6,348,40.849311,-73.930991,POINT (-8229960.272 4990140.4142)
06M462,The College Academy,Manhattan,6,462,40.856532,-73.92606,POINT (-8229411.355599999 4991203.142099999)
06M463,High School for Media and Communications,Manhattan,6,463,40.856532,-73.92606,POINT (-8229411.355599999 4991203.142099999)
06M467,High School for Law and Public Service,Manhattan,6,467,40.856532,-73.92606,POINT (-8229411.355599999 4991203.142099999)
06M468,High School for Health Careers and Sciences,Manhattan,6,468,40.856532,-73.92606,POINT (-8229411.355599999 4991203.142099999)
06M540,A. Philip Randolph Campus High School,Manhattan,6,540,40.8185,-73.949929,POINT (-8232068.4405000005 4985607.203100003)
06M552,Gregorio Luperon High School for Science and Mathematics,Manhattan,6,552,40.8381,-73.9383,POINT (-8230773.906099999 4988490.700099997)
07X221,South Bronx Preparatory: A College Board School,Bronx,7,221,40.813612,-73.920851,POINT (-8228831.4923 4984888.226999998)
07X223,The Laboratory School of Finance and Technology: X223,Bronx,7,223,40.813612,-73.920851,POINT (-8228831.4923 4984888.226999998)
07X259,"H.E.R.O. High (Health, Education, and Research Occupations High School)",Bronx,7,259,40.810671,-73.907528,POINT (-8227348.3827 4984455.6608000025)
07X334,International Community High School,Bronx,7,334,40.810314,-73.918774,POINT (-8228600.2817 4984403.153999999)
07X427,Community School for Social Justice,Bronx,7,427,40.815712,-73.92996,POINT (-8229845.501599999 4985197.1096)
07X473,Mott Haven Village Preparatory High School,Bronx,7,473,40.818041,-73.911633,POINT (-8227805.349300001 4985539.686499998)
07X495,University Heights Secondary School,Bronx,7,495,40.818041,-73.911633,POINT (-8227805.349300001 4985539.686499998)
07X500,Hostos-Lincoln Academy of Science,Bronx,7,500,40.814857,-73.912038,POINT (-8227850.433700001 4985071.349100001)
07X522,Bronx Design and Construction Academy,Bronx,7,522,40.818645,-73.919949,POINT (-8228731.0821 4985628.531999998)
07X527,Bronx Leadership Academy II High School,Bronx,7,527,40.821828,-73.922366,POINT (-8229000.1414 4986096.7491)
07X548,Careers in Sports High School,Bronx,7,548,40.821828,-73.922366,POINT (-8229000.1414 4986096.7491)
07X551,The Urban Assembly Bronx Academy of Letters,Bronx,7,551,40.813681,-73.925995,POINT (-8229404.1197999995 4984898.3759)
07X600,Alfred E. Smith Career and Technical Education High School,Bronx,7,600,40.818645,-73.919949,POINT (-8228731.0821 4985628.531999998)
07X625,Bronx Legacy High School,Bronx,7,625,40.821828,-73.922366,POINT (-8229000.1414 4986096.7491)
07X670,Health Opportunities High School,Bronx,7,670,40.815712,-73.92996,POINT (-8229845.501599999 4985197.1096)
08X269,Bronx Studio School for Writers and Artists,Bronx,8,269,40.820388,-73.892961,POINT (-8225726.7917 4985884.923299998)
08X282,Women's Academy of Excellence,Bronx,8,282,40.815043,-73.85607,POINT (-8221620.1044 4985098.707400002)
08X293,Renaissance High School for Musical Theater and the Arts,Bronx,8,293,40.839775,-73.839583,POINT (-8219784.7798999995 4988737.160899997)
08X312,Millennium Art Academy,Bronx,8,312,40.821218,-73.85593,POINT (-8221604.5197 4986007.0167)
08X320,Pelham Lab High School,Bronx,8,320,40.839775,-73.839583,POINT (-8219784.7798999995 4988737.160899997)
08X348,Schuylerville Preparatory High School,Bronx,8,348,40.839775,-73.839583,POINT (-8219784.7798999995 4988737.160899997)
08X349,Bronx River High School,Bronx,8,349,40.839775,-73.839583,POINT (-8219784.7798999995 4988737.160899997)
08X367,"Archimedes Academy for Math, Science and Technology Applications",Bronx,8,367,40.815043,-73.85607,POINT (-8221620.1044 4985098.707400002)
08X376,Antonia Pantoja Preparatory Academy: A College Board School,Bronx,8,376,40.821218,-73.85593,POINT (-8221604.5197 4986007.0167)
08X405,Herbert H. Lehman High School,Bronx,8,405,40.839775,-73.839583,POINT (-8219784.7798999995 4988737.160899997)
08X432,Bronx Bridges High School,Bronx,8,432,40.821218,-73.85593,POINT (-8221604.5197 4986007.0167)
08X452,Gotham Collaborative High School,Bronx,8,452,40.821218,-73.85593,POINT (-8221604.5197 4986007.0167)
08X530,Longwood Preparatory Academy,Bronx,8,530,40.817741,-73.897876,POINT (-8226273.926999999 4985495.558300003)
08X558,Westchester Square Academy,Bronx,8,558,40.839775,-73.839583,POINT (-8219784.7798999995 4988737.160899997)
08X561,Bronx Compass High School,Bronx,8,561,40.821218,-73.85593,POINT (-8221604.5197 4986007.0167)
08X636,Virtual Innovators Academy,Bronx,8,636,40.823318,-73.907489,POINT (-8227344.041300001 4986315.934699997)
09X227,Bronx Collegiate Academy,Bronx,9,227,40.839307,-73.911366,POINT (-8227775.627 4988668.2984)
09X231,Eagle Academy for Young Men,Bronx,9,231,40.845366,-73.897479,POINT (-8226229.733200001 4989559.870200001)
09X241,"Urban Assembly School for Applied Math and Science, The",Bronx,9,241,40.839508,-73.901774,POINT (-8226707.850400001 4988697.873899996)
09X250,Eximius College Preparatory Academy: A College Board School,Bronx,9,250,40.833884,-73.902794,POINT (-8226821.396299999 4987870.381999999)
09X252,Mott Hall Bronx High School,Bronx,9,252,40.839508,-73.901774,POINT (-8226707.850400001 4988697.873899996)
09X260,Bronx Center for Science and Mathematics,Bronx,9,260,40.833884,-73.902794,POINT (-8226821.396299999 4987870.381999999)
09X263,Validus Preparatory Academy,Bronx,9,263,40.839508,-73.901774,POINT (-8226707.850400001 4988697.873899996)
09X297,Morris Academy for Collaborative Studies,Bronx,9,297,40.827455,-73.90392,POINT (-8226946.742000001 4986924.531800002)
09X324,Bronx Early College Academy for Teaching & Learning,Bronx,9,324,40.828009,-73.917705,POINT (-8228481.281199999 4987006.034000002)
09X327,Comprehensive Model School Project M.S. 327,Bronx,9,327,40.842503,-73.916084,POINT (-8228300.8323 4989138.574299999)
09X329,DreamYard Preparatory School,Bronx,9,329,40.839307,-73.911366,POINT (-8227775.627 4988668.2984)
09X365,Academy for Language and Technology,Bronx,9,365,40.849416,-73.915217,POINT (-8228204.318299999 4990155.866400003)
09X403,Bronx International High School,Bronx,9,403,40.827455,-73.90392,POINT (-8226946.742000001 4986924.531800002)
09X412,Bronx High School of Business,Bronx,9,412,40.839307,-73.911366,POINT (-8227775.627 4988668.2984)
09X413,Bronx High School for Medical Science,Bronx,9,413,40.839307,-73.911366,POINT (-8227775.627 4988668.2984)
09X505,"Bronx School for Law, Government and Justice",Bronx,9,505,40.827461,-73.919024,POINT (-8228628.1116 4986925.414499998)
09X517,Frederick Douglass Academy III Secondary School,Bronx,9,517,40.833493,-73.903951,POINT (-8226950.1929 4987812.854500003)
09X525,Bronx Leadership Academy High School,Bronx,9,525,40.84325,-73.902969,POINT (-8226840.8772 4989248.494999997)
09X543,High School for Violin and Dance,Bronx,9,543,40.827455,-73.90392,POINT (-8226946.742000001 4986924.531800002)
09X564,Claremont International HS,Bronx,9,564,40.839307,-73.911366,POINT (-8227775.627 4988668.2984)
09X568,Young Women's Leadership School of the Bronx,Bronx,9,568,40.848552,-73.909022,POINT (-8227514.6941 4990028.717500001)
10X141,Riverdale / Kingsbridge Academy (Middle School / High School 141),Bronx,10,141,40.887407,-73.914141,POINT (-8228084.5385 4995748.380099997)
10X213,Bronx Engineering and Technology Academy,Bronx,10,213,40.877379,-73.912686,POINT (-8227922.568700001 4994271.8838)
10X225,Theatre Arts Production Company School,Bronx,10,225,40.854257,-73.897404,POINT (-8226221.384199999 4990868.313699998)
10X228,Jonas Bronck Academy,Bronx,10,228,40.860987,-73.891562,POINT (-8225571.0558 4991858.8505000025)
10X237,"The Marie Curie High School for Medicine, Nursing, and Health Professions",Bronx,10,237,40.875636,-73.901565,POINT (-8226684.5846 4994015.271899998)
10X243,West Bronx Academy for the Future,Bronx,10,243,40.859466,-73.888625,POINT (-8225244.110400001 4991634.977399997)
10X264,Bronx Academy for Software Engineering (BASE),Bronx,10,264,40.855392,-73.882487,POINT (-8224560.8314 4991035.358499996)
10X268,Kingsbridge International High School,Bronx,10,268,40.869061,-73.897066,POINT (-8226183.758199999 4993047.3330999985)
10X284,Bronx School of Law and Finance,Bronx,10,284,40.877379,-73.912686,POINT (-8227922.568700001 4994271.8838)
10X342,International School for Liberal Arts,Bronx,10,342,40.869061,-73.897066,POINT (-8226183.758199999 4993047.3330999985)
10X351,Bronx Collaborative High School,Bronx,10,351,40.879958,-73.889011,POINT (-8225287.079700001 4994651.5876)
10X353,World View High School,Bronx,10,353,40.879958,-73.889011,POINT (-8225287.079700001 4994651.5876)
10X368,In-Tech Academy (M.S. / High School 368),Bronx,10,368,40.877935,-73.913694,POINT (-8228034.7787 4994353.741899997)
10X374,Knowledge and Power Preparatory Academy International High School (Kappa),Bronx,10,374,40.859466,-73.888625,POINT (-8225244.110400001 4991634.977399997)
10X433,High School for Teaching and the Professions,Bronx,10,433,40.869061,-73.897066,POINT (-8226183.758199999 4993047.3330999985)
10X434,Belmont Preparatory High School,Bronx,10,434,40.859466,-73.888625,POINT (-8225244.110400001 4991634.977399997)
10X437,Fordham High School for the Arts,Bronx,10,437,40.859466,-73.888625,POINT (-8225244.110400001 4991634.977399997)
10X438,Fordham Leadership Academy,Bronx,10,438,40.859466,-73.888625,POINT (-8225244.110400001 4991634.977399997)
10X439,Bronx High School for Law and Community Service,Bronx,10,439,40.859466,-73.888625,POINT (-8225244.110400001 4991634.977399997)
10X440,DeWitt Clinton High School,Bronx,10,440,40.879958,-73.889011,POINT (-8225287.079700001 4994651.5876)
10X442,"Celia Cruz Bronx High School of Music, The",Bronx,10,442,40.869061,-73.897066,POINT (-8226183.758199999 4993047.3330999985)
10X445,The Bronx High School of Science,Bronx,10,445,40.879958,-73.889011,POINT (-8225287.079700001 4994651.5876)
10X477,Marble Hill High School for International Studies,Bronx,10,477,40.877379,-73.912686,POINT (-8227922.568700001 4994271.8838)
10X524,Crotona International High School,Bronx,10,524,40.855392,-73.882487,POINT (-8224560.8314 4991035.358499996)
10X546,Bronx Theatre High School,Bronx,10,546,40.877379,-73.912686,POINT (-8227922.568700001 4994271.8838)
10X549,Discovery High School,Bronx,10,549,40.869061,-73.897066,POINT (-8226183.758199999 4993047.3330999985)
10X565,High School for Energy and Technology,Bronx,10,565,40.855392,-73.882487,POINT (-8224560.8314 4991035.358499996)
10X696,High School of American Studies at Lehman College,Bronx,10,696,40.874725,-73.895543,POINT (-8226014.218699999 4993881.153300002)
11X249,Bronx Health Sciences High School,Bronx,11,249,40.874035,-73.831669,POINT (-8218903.797499999 4993779.571800001)
11X265,Bronx Lab School,Bronx,11,265,40.875172,-73.861649,POINT (-8222241.1558 4993946.961000003)
11X270,Academy for Scholarship and Entrepreneurship: A College Board School,Bronx,11,270,40.888242,-73.852714,POINT (-8221246.5162 4995871.333400004)
11X275,High School of Computers and Technology,Bronx,11,275,40.875172,-73.861649,POINT (-8222241.1558 4993946.961000003)
11X288,Collegiate Institute for Math and Science,Bronx,11,288,40.860443,-73.860729,POINT (-8222138.741900001 4991778.779600002)
11X290,Bronx Academy of Health Careers,Bronx,11,290,40.875172,-73.861649,POINT (-8222241.1558 4993946.961000003)
11X299,Astor Collegiate Academy,Bronx,11,299,40.860443,-73.860729,POINT (-8222138.741900001 4991778.779600002)
11X418,Bronx High School for the Visual Arts,Bronx,11,418,40.851577,-73.864438,POINT (-8222551.6259 4990473.893100001)
11X455,Harry S Truman High School,Bronx,11,455,40.874035,-73.831669,POINT (-8218903.797499999 4993779.571800001)
11X508,Bronxdale High School,Bronx,11,508,40.860443,-73.860729,POINT (-8222138.741900001 4991778.779600002)
11X509,High School of Language and Innovation,Bronx,11,509,40.860443,-73.860729,POINT (-8222138.741900001 4991778.779600002)
11X513,New World High School,Bronx,11,513,40.888242,-73.852714,POINT (-8221246.5162 4995871.333400004)
11X514,The Bronxwood Preparatory Academy,Bronx,11,514,40.888242,-73.852714,POINT (-8221246.5162 4995871.333400004)
11X542,Pelham Preparatory Academy,Bronx,11,542,40.860443,-73.860729,POINT (-8222138.741900001 4991778.779600002)
11X544,High School for Contemporary Arts,Bronx,11,544,40.875172,-73.861649,POINT (-8222241.1558 4993946.961000003)
11X545,Bronx Aerospace High School,Bronx,11,545,40.875172,-73.861649,POINT (-8222241.1558 4993946.961000003)
12X242,Mott Hall V,Bronx,12,242,40.832508,-73.878191,POINT (-8224082.6028 4987667.933799997)
12X248,"Metropolitan High School, The",Bronx,12,248,40.827539,-73.896925,POINT (-8226168.0622000005 4986936.8895)
12X251,Explorations Academy H.S.,Bronx,12,251,40.836245,-73.890591,POINT (-8225462.964500001 4988217.761200003)
12X267,Bronx Latin,Bronx,12,267,40.826933,-73.900593,POINT (-8226576.382099999 4986847.737899996)
12X271,East Bronx Academy for the Future,Bronx,12,271,40.836821,-73.887688,POINT (-8225139.804099999 4988302.511200003)
12X388,Pan American International High School at Monroe,Bronx,12,388,40.832508,-73.878191,POINT (-8224082.6028 4987667.933799997)
12X478,The Cinema School,Bronx,12,478,40.832508,-73.878191,POINT (-8224082.6028 4987667.933799997)
12X479,Bronx Career and College Preparatory High School,Bronx,12,479,40.826933,-73.900593,POINT (-8226576.382099999 4986847.737899996)
12X511,Bronx Envision Academy,Bronx,12,511,40.836245,-73.890591,POINT (-8225462.964500001 4988217.761200003)
12X521,The Metropolitan Soundview High School,Bronx,12,521,40.832508,-73.878191,POINT (-8224082.6028 4987667.933799997)
12X550,High School of World Cultures,Bronx,12,550,40.832508,-73.878191,POINT (-8224082.6028 4987667.933799997)
12X641,Bard High School Early College Bronx,Bronx,12,641,40.836245,-73.890591,POINT (-8225462.964500001 4988217.761200003)
12X682,Fannie Lou Hamer Freedom High School,Bronx,12,682,40.831212,-73.885804,POINT (-8224930.0781 4987477.2597)
12X684,Wings Academy,Bronx,12,684,40.841376,-73.875262,POINT (-8223756.5481 4988972.739100002)
13K265,Dr. Susan S. McKinney Secondary School of the Arts,Brooklyn,13,265,40.697177,-73.976104,POINT (-8234982.2282 4967777.428099997)
13K350,Urban Assembly School of Music and Art,Brooklyn,13,350,40.69733,-73.984528,POINT (-8235919.9835 4967799.892700002)
13K412,Brooklyn Community Arts & Media High School (BCAM),Brooklyn,13,412,40.692015,-73.95818,POINT (-8232986.9376 4967019.5352)
13K419,"Science Skills Center High School for Science, Technology and the Creative Arts",Brooklyn,13,419,40.69733,-73.984528,POINT (-8235919.9835 4967799.892700002)
13K430,Brooklyn Technical High School,Brooklyn,13,430,40.688896,-73.976435,POINT (-8235019.074899999 4966561.627300002)
13K439,Brooklyn International High School,Brooklyn,13,439,40.69733,-73.984528,POINT (-8235919.9835 4967799.892700002)
13K483,The Urban Assembly School for Law and Justice,Brooklyn,13,483,40.694629,-73.988323,POINT (-8236342.441 4967403.319399998)
13K527,Urban Assembly Institute of Math and Science for Young Women,Brooklyn,13,527,40.694629,-73.988323,POINT (-8236342.441 4967403.319399998)
13K594,Gotham Professional Arts Academy,Brooklyn,13,594,40.678591,-73.961636,POINT (-8233371.6578 4965048.877499998)
13K595,Bedford Academy High School,Brooklyn,13,595,40.685486,-73.953692,POINT (-8232487.3357 4966061.021399997)
13K605,George Westinghouse Career and Technical Education High School,Brooklyn,13,605,40.695444,-73.986105,POINT (-8236095.534399999 4967522.979800001)
13K670,Benjamin Banneker Academy,Brooklyn,13,670,40.695389,-73.968759,POINT (-8234164.5865 4967514.9045)
13K674,"City Polytechnic High School of Engineering, Architecture, and Technology",Brooklyn,13,674,40.695444,-73.986105,POINT (-8236095.534399999 4967522.979800001)
13K963,Design Works High School,Brooklyn,13,963,40.682163,-73.973492,POINT (-8234691.4616 4965573.212200001)
14K071,Juan Morel Campos Secondary School,Brooklyn,14,71,40.703996,-73.953304,POINT (-8232444.1438 4968778.694300003)
14K449,"Brooklyn Latin School, The",Brooklyn,14,449,40.709765,-73.944463,POINT (-8231459.9681 4969625.864100002)
14K454,The Williamsburg High School of Art and Technology,Brooklyn,14,454,40.709765,-73.944463,POINT (-8231459.9681 4969625.864100002)
14K474,PROGRESS High School for Professional Careers,Brooklyn,14,474,40.711134,-73.938921,POINT (-8230843.035499999 4969826.910599999)
14K477,East Williamsburg Scholars Academy,Brooklyn,14,477,40.711134,-73.938921,POINT (-8230843.035499999 4969826.910599999)
14K478,"The High School for Enterprise, Business and Technology",Brooklyn,14,478,40.711134,-73.938921,POINT (-8230843.035499999 4969826.910599999)
14K488,Brooklyn Preparatory High School,Brooklyn,14,488,40.715561,-73.954815,POINT (-8232612.3475 4970477.072700001)
14K558,Williamsburg High School for Architecture and Design,Brooklyn,14,558,40.715561,-73.954815,POINT (-8232612.3475 4970477.072700001)
14K561,Williamsburg Preparatory School,Brooklyn,14,561,40.715561,-73.954815,POINT (-8232612.3475 4970477.072700001)
14K586,Lyons Community School,Brooklyn,14,586,40.709765,-73.944463,POINT (-8231459.9681 4969625.864100002)
14K610,A-Tech High School,Brooklyn,14,610,40.721448,-73.953328,POINT (-8232446.815400001 4971341.721500002)
14K614,Young Women's Leadership School of Brooklyn,Brooklyn,14,614,40.705005,-73.93879,POINT (-8230828.4527 4968926.859300002)
14K685,El Puente Academy for Peace and Justice,Brooklyn,14,685,40.70554,-73.955741,POINT (-8232715.429400001 4969005.421400003)
15K429,Digital Arts and Cinema Technology High School,Brooklyn,15,429,40.685006,-73.993293,POINT (-8236895.698899999 4965990.556999996)
15K448,Brooklyn Collaborative Studies,Brooklyn,15,448,40.679462,-74.002022,POINT (-8237867.4067 4965176.729199998)
15K462,John Jay School for Law,Brooklyn,15,462,40.669255,-73.97858,POINT (-8235257.8552 4963678.5766)
15K463,Cyberarts Studio Academy,Brooklyn,15,463,40.669255,-73.97858,POINT (-8235257.8552 4963678.5766)
15K464,Park Slope Collegiate,Brooklyn,15,464,40.669255,-73.97858,POINT (-8235257.8552 4963678.5766)
15K497,The Boerum Hill School for International Studies,Brooklyn,15,497,40.685006,-73.993293,POINT (-8236895.698899999 4965990.556999996)
15K519,Cobble Hill School of American Studies,Brooklyn,15,519,40.684869,-73.990884,POINT (-8236627.530200001 4965970.445299998)
15K592,Khalil Gibran International Academy,Brooklyn,15,592,40.686147,-73.979829,POINT (-8235396.893300001 4966158.057700001)
15K656,Brooklyn High School of the Arts,Brooklyn,15,656,40.683951,-73.980266,POINT (-8235445.539899999 4965835.683700003)
15K667,Sunset Park High School,Brooklyn,15,667,40.655583,-74.004342,POINT (-8238125.6679 4961672.200999998)
15K684,Millennium Brooklyn HS,Brooklyn,15,684,40.669255,-73.97858,POINT (-8235257.8552 4963678.5766)
16K455,Boys and Girls High School,Brooklyn,16,455,40.678478,-73.931604,POINT (-8230028.5108 4965032.2907000035)
16K498,Brooklyn High School for Law and Technology,Brooklyn,16,498,40.688399,-73.920603,POINT (-8228803.8851 4966488.6635000035)
16K688,The Brooklyn Academy of Global Finance,Brooklyn,16,688,40.691467,-73.932254,POINT (-8230100.8685 4966939.080499999)
16K765,Nelson Mandela High School,Brooklyn,16,765,40.678478,-73.931604,POINT (-8230028.5108 4965032.2907000035)
17K122,Pathways in Technology Early College High School (P-Tech),Brooklyn,17,122,40.675905,-73.939282,POINT (-8230883.221899999 4964654.6175)
17K382,Academy for College Preparation and Career Exploration: A College Board School,Brooklyn,17,382,40.649602,-73.957173,POINT (-8232874.8389 4960794.614299998)
17K408,Academy of Hospitality and Tourism,Brooklyn,17,408,40.649602,-73.957173,POINT (-8232874.8389 4960794.614299998)
17K524,International High School at Prospect Heights,Brooklyn,17,524,40.669805,-73.960689,POINT (-8233266.2382 4963759.298100002)
17K528,The High School for Global Citizenship,Brooklyn,17,528,40.669805,-73.960689,POINT (-8233266.2382 4963759.298100002)
17K537,High School for Youth and Community Development at Erasmus,Brooklyn,17,537,40.649602,-73.957173,POINT (-8232874.8389 4960794.614299998)
17K539,High School for Service & Learning at Erasmus,Brooklyn,17,539,40.649602,-73.957173,POINT (-8232874.8389 4960794.614299998)
17K543,"Science, Technology and Research Early College High School at Erasmus",Brooklyn,17,543,40.649602,-73.957173,POINT (-8232874.8389 4960794.614299998)
17K546,High School for Public Service: Heroes of Tomorrow,Brooklyn,17,546,40.658671,-73.943839,POINT (-8231390.504799999 4962125.331200004)
17K547,Brooklyn Academy of Science and the Environment,Brooklyn,17,547,40.669805,-73.960689,POINT (-8233266.2382 4963759.298100002)
17K548,Brooklyn School for Music & Theatre,Brooklyn,17,548,40.669805,-73.960689,POINT (-8233266.2382 4963759.298100002)
17K590,Medgar Evers College Preparatory School,Brooklyn,17,590,40.66679,-73.951823,POINT (-8232279.2796 4963316.805699997)
17K600,Clara Barton High School,Brooklyn,17,600,40.669805,-73.960689,POINT (-8233266.2382 4963759.298100002)
17K745,Brooklyn Institute for Liberal Arts,Brooklyn,17,745,40.658671,-73.943839,POINT (-8231390.504799999 4962125.331200004)
17K751,Academy for Health Careers,Brooklyn,17,751,40.675905,-73.939282,POINT (-8230883.221899999 4964654.6175)
18K563,It Takes a Village Academy,Brooklyn,18,563,40.647728,-73.922212,POINT (-8228982.998199999 4960519.6602)
18K566,Brooklyn Community High School for Excellence and Equity,Brooklyn,18,566,40.634451,-73.916927,POINT (-8228394.6746 4958571.873800002)
18K567,Brooklyn Theatre Arts High School,Brooklyn,18,567,40.634451,-73.916927,POINT (-8228394.6746 4958571.873800002)
18K569,Kurt Hahn Expeditionary Learning School,Brooklyn,18,569,40.647728,-73.922212,POINT (-8228982.998199999 4960519.6602)
18K576,Victory Collegiate High School,Brooklyn,18,576,40.634451,-73.916927,POINT (-8228394.6746 4958571.873800002)
18K617,High School for Innovation in Advertising and Media,Brooklyn,18,617,40.640543,-73.898601,POINT (-8226354.6337 4959465.545299999)
18K629,Cultural Academy for the Arts and Sciences,Brooklyn,18,629,40.647728,-73.922212,POINT (-8228982.998199999 4960519.6602)
18K633,High School for Medical Professions,Brooklyn,18,633,40.640543,-73.898601,POINT (-8226354.6337 4959465.545299999)
18K637,Academy for Conservation and the Environment,Brooklyn,18,637,40.634451,-73.916927,POINT (-8228394.6746 4958571.873800002)
18K642,Urban Action Academy,Brooklyn,18,642,40.640543,-73.898601,POINT (-8226354.6337 4959465.545299999)
19K404,Academy for Young Writers,Brooklyn,19,404,40.657266,-73.874064,POINT (-8223623.1873 4961919.1602)
19K409,East New York Family Academy,Brooklyn,19,409,40.661102,-73.886668,POINT (-8225026.258199999 4962482.068599999)
19K422,Spring Creek Community School,Brooklyn,19,422,40.657266,-73.874064,POINT (-8223623.1873 4961919.1602)
19K502,FDNY - Captain Vernon A. Richard High School for Fire and Life Safety,Brooklyn,19,502,40.666868,-73.895122,POINT (-8225967.3531 4963328.252999999)
19K507,Performing Arts and Technology High School,Brooklyn,19,507,40.666868,-73.895122,POINT (-8225967.3531 4963328.252999999)
19K510,World Academy for Total Community Health High School,Brooklyn,19,510,40.666868,-73.895122,POINT (-8225967.3531 4963328.252999999)
19K583,Multicultural High School,Brooklyn,19,583,40.693002,-73.869305,POINT (-8223093.4179 4967164.443599999)
19K615,Transit Tech Career and Technical Education High School,Brooklyn,19,615,40.67878,-73.875328,POINT (-8223763.895099999 4965076.620200001)
19K618,Academy of Innovative Technology,Brooklyn,19,618,40.693002,-73.869305,POINT (-8223093.4179 4967164.443599999)
19K639,Brooklyn Lab School,Brooklyn,19,639,40.693002,-73.869305,POINT (-8223093.4179 4967164.443599999)
19K659,Cypress Hills Collegiate Preparatory School,Brooklyn,19,659,40.693002,-73.869305,POINT (-8223093.4179 4967164.443599999)
19K660,W. H. Maxwell Career and Technical Education High School,Brooklyn,19,660,40.673766,-73.895976,POINT (-8226062.42 4964340.6592999995)
19K683,School for Classics High School,Brooklyn,19,683,40.67002,-73.874537,POINT (-8223675.841399999 4963790.853)
19K764,The Urban Assembly School for Collaborative Healthcare,Brooklyn,19,764,40.693002,-73.869305,POINT (-8223093.4179 4967164.443599999)
19K953,The East New York Arts and Civics High School,Brooklyn,19,953,40.659934,-73.885704,POINT (-8224918.9462 4962310.668700002)
19K965,Bard High School Early College Brooklyn,Brooklyn,19,965,40.671601,-73.893319,POINT (-8225766.644099999 4964022.8950999975)
20K445,New Utrecht High School,Brooklyn,20,445,40.613041,-74.002308,POINT (-8237899.244100001 4955431.761100002)
20K485,High School of Telecommunication Arts and Technology,Brooklyn,20,485,40.636721,-74.023419,POINT (-8240249.309900001 4958904.864)
20K490,Fort Hamilton High School,Brooklyn,20,490,40.626827,-74.038103,POINT (-8241883.9253 4957453.579099998)
20K505,Franklin Delano Roosevelt High School,Brooklyn,20,505,40.621299,-73.982583,POINT (-8235703.4671 4956642.807300001)
20K609,Urban Assembly School for Leadership and Empowerment,Brooklyn,20,609,40.6351,-73.982424,POINT (-8235685.7673 4958667.075599998)
21K337,International High School at Lafayette,Brooklyn,21,337,40.593028,-73.986313,POINT (-8236118.6888 4952497.450199999)
21K344,Rachel Carson High School for Coastal Studies,Brooklyn,21,344,40.582518,-73.972009,POINT (-8234526.3748 4950956.823100001)
21K348,High School of Sports Management,Brooklyn,21,348,40.593028,-73.986313,POINT (-8236118.6888 4952497.450199999)
21K410,Abraham Lincoln High School,Brooklyn,21,410,40.582627,-73.968733,POINT (-8234161.6921999995 4950972.799800001)
21K468,Kingsborough Early College School,Brooklyn,21,468,40.593028,-73.986313,POINT (-8236118.6888 4952497.450199999)
21K525,Edward R. Murrow High School,Brooklyn,21,525,40.619671,-73.959141,POINT (-8233093.9156 4956404.047200002)
21K540,John Dewey High School,Brooklyn,21,540,40.58807,-73.981925,POINT (-8235630.218900001 4951770.642700002)
21K559,Life Academy High School for Film and Music,Brooklyn,21,559,40.593028,-73.986313,POINT (-8236118.6888 4952497.450199999)
21K572,Leaders High School,Brooklyn,21,572,40.593028,-73.986313,POINT (-8236118.6888 4952497.450199999)
21K620,William E. Grady Career and Technical Education High School,Brooklyn,21,620,40.583263,-73.963764,POINT (-8233608.545600001 4951066.0222999975)
21K690,Brooklyn Studio Secondary School,Brooklyn,21,690,40.60498,-73.995084,POINT (-8237095.0721 4954249.749700002)
22K405,Midwood High School,Brooklyn,22,405,40.632829,-73.952356,POINT (-8232338.6129 4958333.946800001)
22K425,James Madison High School,Brooklyn,22,425,40.610499,-73.947661,POINT (-8231815.9679000005 4955059.003799997)
22K535,Leon M. Goldstein High School for the Sciences,Brooklyn,22,535,40.578356,-73.934449,POINT (-8230345.2148 4950346.7958)
22K555,Brooklyn College Academy,Brooklyn,22,555,40.649055,-73.972312,POINT (-8234560.104599999 4960714.3574)
22K611,Origins High School,Brooklyn,22,611,40.593157,-73.936635,POINT (-8230588.5592 4952516.361400001)
23K493,Brooklyn Collegiate: A College Board School,Brooklyn,23,493,40.674456,-73.912685,POINT (-8227922.4574 4964441.935000002)
23K514,Frederick Douglass Academy VII High School,Brooklyn,23,514,40.665568,-73.912102,POINT (-8227857.5581 4963137.466300003)
23K644,Eagle Academy for Young Men II,Brooklyn,23,644,40.678124,-73.915106,POINT (-8228191.9618999995 4964980.328599997)
23K697,Teachers Preparatory High School,Brooklyn,23,697,40.665568,-73.912102,POINT (-8227857.5581 4963137.466300003)
24Q236,International High School for Health Sciences,Queens,24,236,40.740824,-73.874129,POINT (-8223630.4231 4974188.097599998)
24Q264,Academy of Finance and Enterprise,Queens,24,264,40.744175,-73.937004,POINT (-8230629.6361 4974680.450800002)
24Q267,High School of Applied Communication,Queens,24,267,40.744175,-73.937004,POINT (-8230629.6361 4974680.450800002)
24Q293,Civic Leadership Academy,Queens,24,293,40.743228,-73.871505,POINT (-8223338.320699999 4974541.308200002)
24Q296,Pan American International High School,Queens,24,296,40.743228,-73.871505,POINT (-8223338.320699999 4974541.308200002)
24Q299,Bard High School Early College Queens,Queens,24,299,40.744175,-73.937004,POINT (-8230629.6361 4974680.450800002)
24Q455,Newtown High School,Queens,24,455,40.740824,-73.874129,POINT (-8223630.4231 4974188.097599998)
24Q485,Grover Cleveland High School,Queens,24,485,40.711881,-73.909202,POINT (-8227534.7316 4969936.614200003)
24Q520,Middle College High School at LaGuardia Community College,Queens,24,520,40.743253,-73.933316,POINT (-8230219.0898 4974544.981399998)
24Q530,International High School at LaGuardia Community College,Queens,24,530,40.743253,-73.933316,POINT (-8230219.0898 4974544.981399998)
24Q550,High School for Arts and Business,Queens,24,550,40.737673,-73.853412,POINT (-8221324.2172 4973725.152500004)
24Q560,"Robert F. Wagner, Jr. Secondary School for Arts and Technology",Queens,24,560,40.742217,-73.936442,POINT (-8230567.0745 4974392.764300004)
24Q585,Maspeth High School,Queens,24,585,40.729104,-73.887909,POINT (-8225164.4057 4972466.305299997)
24Q600,Queens Technical High School,Queens,24,600,40.741658,-73.927995,POINT (-8229626.7588 4974310.632600002)
24Q610,Aviation Career & Technical Education High School,Queens,24,610,40.743309,-73.929577,POINT (-8229802.8662 4974553.209399998)
25Q240,Veritas Academy,Queens,25,240,40.764892,-73.826811,POINT (-8218363.0074000005 4977724.8935)
25Q241,Queens High School for Language Studies,Queens,25,241,40.764892,-73.826811,POINT (-8218363.0074000005 4977724.8935)
25Q252,"Queens School of Inquiry, The",Queens,25,252,40.724195,-73.80938,POINT (-8216422.5974 4971745.211300001)
25Q263,Flushing International High School,Queens,25,263,40.759963,-73.818399,POINT (-8217426.5879 4977000.472000003)
25Q281,East-West School of International Studies,Queens,25,281,40.74943,-73.821402,POINT (-8217760.8803 4975452.603500001)
25Q285,World Journalism Preparatory: A College Board School,Queens,25,285,40.764884,-73.789365,POINT (-8214194.537799999 4977723.717699997)
25Q425,John Bowne High School,Queens,25,425,40.737448,-73.823841,POINT (-8218032.388499999 4973692.096299998)
25Q460,Flushing High School,Queens,25,460,40.764892,-73.826811,POINT (-8218363.0074000005 4977724.8935)
25Q525,Townsend Harris High School,Queens,25,525,40.737038,-73.821532,POINT (-8217775.3518 4973631.8609)
25Q670,Robert F. Kennedy Community High School,Queens,25,670,40.72528,-73.811408,POINT (-8216648.3533 4971904.5847999975)
26Q315,Business Technology Early College High School,Queens,26,315,40.733888,-73.739726,POINT (-8208668.749600001 4973169.089000002)
26Q415,Benjamin N. Cardozo High School,Queens,26,415,40.752343,-73.757271,POINT (-8210621.85 4975880.656499997)
26Q430,Francis Lewis High School,Queens,26,430,40.740875,-73.795049,POINT (-8214827.2776999995 4974195.5907000005)
26Q435,Martin Van Buren High School,Queens,26,435,40.733888,-73.739726,POINT (-8208668.749600001 4973169.089000002)
26Q495,Bayside High School,Queens,26,495,40.771398,-73.781041,POINT (-8213267.9143 4978681.170999996)
26Q566,"Queens High School of Teaching, Liberal Arts and the Sciences",Queens,26,566,40.744197,-73.728834,POINT (-8207456.2577 4974683.683300003)
27Q260,Frederick Douglass Academy VI High School,Queens,27,260,40.601537,-73.763995,POINT (-8211370.362299999 4953744.934500001)
27Q262,Channel View School for Research,Queens,27,262,40.586012,-73.825317,POINT (-8218196.6961 4951468.970399998)
27Q302,"Queens High School for Information, Research, and Technology",Queens,27,302,40.601537,-73.763995,POINT (-8211370.362299999 4953744.934500001)
27Q308,Robert H. Goddard High School of Communication Arts and Technology,Queens,27,308,40.670905,-73.845992,POINT (-8220498.226600001 4963920.743100002)
27Q309,Academy of Medical Technology: A College Board School,Queens,27,309,40.601537,-73.763995,POINT (-8211370.362299999 4953744.934500001)
27Q314,Epic High School - South,Queens,27,314,40.675021,-73.81673,POINT (-8217240.795600001 4964524.864500001)
27Q323,Scholars' Academy,Queens,27,323,40.584543,-73.825162,POINT (-8218179.4416000005 4951253.642499998)
27Q324,Rockaway Park High School for Environmental Sustainability,Queens,27,324,40.586012,-73.825317,POINT (-8218196.6961 4951468.970399998)
27Q334,Epic High School - North,Queens,27,334,40.693013,-73.829409,POINT (-8218652.215399999 4967166.058600001)
27Q351,Rockaway Collegiate High School,Queens,27,351,40.586012,-73.825317,POINT (-8218196.6961 4951468.970399998)
27Q400,August Martin High School,Queens,27,400,40.673949,-73.782684,POINT (-8213450.8122000005 4964367.519299999)
27Q475,Richmond Hill High School,Queens,27,475,40.695171,-73.833815,POINT (-8219142.689099999 4967482.897100002)
27Q480,John Adams High School,Queens,27,480,40.680065,-73.838616,POINT (-8219677.134 4965265.242899999)
27Q650,"High School for Construction Trades, Engineering and Architecture",Queens,27,650,40.689177,-73.841475,POINT (-8219995.396400001 4966602.8807)
28Q157,J.H.S. 157 Stephen A. Halsey,Queens,28,157,40.732348,-73.852879,POINT (-8221264.8839 4972942.853)
28Q167,Metropolitan Expeditionary Learning School,Queens,28,167,40.708431,-73.855543,POINT (-8221561.438999999 4969429.9614999965)
28Q284,York Early College Academy,Queens,28,284,40.69691,-73.786403,POINT (-8213864.8094 4967738.225299999)
28Q310,Queens Collegiate: A College Board School,Queens,28,310,40.714551,-73.798658,POINT (-8215229.0298 4970328.737300001)
28Q325,Hillside Arts & Letters Academy,Queens,28,325,40.714551,-73.798658,POINT (-8215229.0298 4970328.737300001)
28Q328,High School for Community Leadership,Queens,28,328,40.714551,-73.798658,POINT (-8215229.0298 4970328.737300001)
28Q350,Jamaica Gateway to the Sciences,Queens,28,350,40.714551,-73.798658,POINT (-8215229.0298 4970328.737300001)
28Q440,Forest Hills High School,Queens,28,440,40.730017,-73.843972,POINT (-8220273.361199999 4972600.423799999)
28Q505,Hillcrest High School,Queens,28,505,40.709461,-73.803001,POINT (-8215712.4903 4969581.220299996)
28Q620,Thomas A. Edison Career and Technical Education High School,Queens,28,620,40.716071,-73.799692,POINT (-8215344.134099999 4970551.9755000025)
28Q680,Queens Gateway to Health Sciences Secondary School,Queens,28,680,40.718027,-73.805923,POINT (-8216037.765900001 4970839.2553)
28Q686,Queens Metropolitan High School,Queens,28,686,40.708431,-73.855543,POINT (-8221561.438999999 4969429.9614999965)
28Q687,Queens High School for the Sciences at York College,Queens,28,687,40.700884,-73.798364,POINT (-8215196.301899999 4968321.731799997)
28Q690,High School for Law Enforcement and Public Safety,Queens,28,690,40.685838,-73.783438,POINT (-8213534.747099999 4966112.695699997)
28Q896,"Young Women's Leadership School, Queens",Queens,28,896,40.708409,-73.804166,POINT (-8215842.1775 4969426.730700001)
29Q243,Institute for Health Professions at Cambria Heights,Queens,29,243,40.698786,-73.74633,POINT (-8209403.9035 4968013.675999999)
29Q248,Queens Preparatory Academy,Queens,29,248,40.66903,-73.757744,POINT (-8210674.5041000005 4963645.554399997)
29Q259,Pathways College Preparatory School: A College Board School,Queens,29,259,40.705989,-73.752885,POINT (-8210133.602700001 4969071.355300002)
29Q265,Excelsior Preparatory High School,Queens,29,265,40.66903,-73.757744,POINT (-8210674.5041000005 4963645.554399997)
29Q272,George Washington Carver High School for the Sciences,Queens,29,272,40.66903,-73.757744,POINT (-8210674.5041000005 4963645.554399997)
29Q283,Preparatory Academy for Writers: A College Board School,Queens,29,283,40.66903,-73.757744,POINT (-8210674.5041000005 4963645.554399997)
29Q313,Benjamin Franklin High School for Finance & Information Technology,Queens,29,313,40.698786,-73.74633,POINT (-8209403.9035 4968013.675999999)
29Q326,Cambria Heights Academy,Queens,29,326,40.711857,-73.771196,POINT (-8212171.9739 4969933.089599997)
29Q327,Eagle Academy for Young Men III,Queens,29,327,40.69172,-73.778924,POINT (-8213032.251 4966976.224699996)
29Q492,"Mathematics, Science Research and Technology Magnet High School",Queens,29,492,40.698786,-73.74633,POINT (-8209403.9035 4968013.675999999)
29Q498,"Health, Arts, Robotics, and Technology High School",Queens,29,498,40.698786,-73.74633,POINT (-8209403.9035 4968013.675999999)
30Q258,Energy Tech High School,Queens,30,258,40.756471,-73.932628,POINT (-8230142.502 4976487.2808)
30Q286,"Young Women's Leadership School, Astoria",Queens,30,286,40.770769,-73.92383,POINT (-8229163.1131 4978588.714000002)
30Q301,Academy for Careers in Television and Film,Queens,30,301,40.742964,-73.959183,POINT (-8233098.591 4974502.519100003)
30Q367,Motion Picture Technical High School,Queens,30,367,40.749753,-73.915929,POINT (-8228283.5778 4975500.066)
30Q417,Gotham Tech High School,Queens,30,417,40.751838,-73.936592,POINT (-8230583.772399999 4975806.447499998)
30Q445,William Cullen Bryant High School,Queens,30,445,40.757072,-73.911165,POINT (-8227753.251700001 4976575.603)
30Q450,Long Island City High School,Queens,30,450,40.765881,-73.933907,POINT (-8230284.8796 4977870.254600003)
30Q501,Frank Sinatra School of the Arts High School,Queens,30,501,40.756099,-73.925182,POINT (-8229313.617000001 4976432.612499997)
30Q502,Information Technology High School,Queens,30,502,40.748502,-73.946488,POINT (-8231685.3901 4975316.241700001)
30Q555,ATLAS,Queens,30,555,40.751838,-73.936592,POINT (-8230583.772399999 4975806.447499998)
30Q575,Academy of American Studies,Queens,30,575,40.751839,-73.936596,POINT (-8230584.217700001 4975806.594499998)
30Q580,Baccalaureate School for Global Education,Queens,30,580,40.754975,-73.926977,POINT (-8229513.4355 4976267.433899999)
31R028,The Eagle Academy for Young Men of Staten Island,Staten Island,31,28,40.620443,-74.080695,POINT (-8246625.244999999 4956517.266800001)
31R047,CSI High School for International Studies,Staten Island,31,47,40.581958,-74.159343,POINT (-8255380.3003 4950874.741300002)
31R064,Gaynor McCown Expeditionary Learning School,Staten Island,31,64,40.581958,-74.159343,POINT (-8255380.3003 4950874.741300002)
31R080,The Michael J. Petrides School,Staten Island,31,80,40.607637,-74.105883,POINT (-8249429.1603 4954639.3386999965)
31R440,New Dorp High School,Staten Island,31,440,40.570909,-74.105878,POINT (-8249428.603700001 4949255.3785)
31R445,Port Richmond High School,Staten Island,31,445,40.635562,-74.141924,POINT (-8253441.2261 4958734.846900001)
31R450,Curtis High School,Staten Island,31,450,40.645436,-74.082149,POINT (-8246787.103599999 4960183.387400001)
31R455,Tottenville High School,Staten Island,31,455,40.528152,-74.193431,POINT (-8259174.959100001 4942991.3478000015)
31R460,Susan E. Wagner High School,Staten Island,31,460,40.588985,-74.130819,POINT (-8252205.0232 4951904.7711)
31R600,Ralph R. McKee Career and Technical Education High School,Staten Island,31,600,40.64282,-74.079263,POINT (-8246465.8355 4959799.592799999)
31R605,Staten Island Technical High School,Staten Island,31,605,40.568299,-74.117086,POINT (-8250676.272600001 4948872.890900001)
32K168,The Brooklyn School for Math and Research,Brooklyn,32,168,40.696457,-73.911751,POINT (-8227818.484999999 4967671.713100001)
32K403,Academy for Excellence in Leadership,Brooklyn,32,403,40.696457,-73.911751,POINT (-8227818.484999999 4967671.713100001)
32K545,EBC High School for Public Service - Bushwick,Brooklyn,32,545,40.694723,-73.929315,POINT (-8229773.7005 4967417.120700002)
32K549,The Brooklyn School for Social Justice,Brooklyn,32,549,40.696457,-73.911751,POINT (-8227818.484999999 4967671.713100001)
32K552,The Academy of Urban Planning and Engineering,Brooklyn,32,552,40.696457,-73.911751,POINT (-8227818.484999999 4967671.713100001)
32K554,All City Leadership Secondary School,Brooklyn,32,554,40.697378,-73.913172,POINT (-8227976.67 4967806.940399997)
32K556,Bushwick Leaders High School for Academic Excellence,Brooklyn,32,556,40.699101,-73.902147,POINT (-8226749.3726 4968059.9278)
84K037,Beginning with Children Charter School II,Brooklyn,84,37,40.703996,-73.953304,POINT (-8232444.1438 4968778.694300003)
84K356,Achievement First Crown Heights Charter School,Brooklyn,84,356,40.662092,-73.936313,POINT (-8230552.714299999 4962627.3500000015)
84K358,Achievement First East New York Charter School,Brooklyn,84,358,40.664067,-73.893328,POINT (-8225767.646 4962917.185500003)
84K367,Success Academy Charter School - Bed Stuy 1,Brooklyn,84,367,40.696698,-73.947557,POINT (-8231804.3906 4967707.098099999)
84K406,"EMBER Charter School for Mindful Education, Innovation and Transformation",Brooklyn,84,406,40.682949,-73.930132,POINT (-8229864.648499999 4965688.593099996)
84K473,Williamsburg Charter High School,Brooklyn,84,473,40.703703,-73.935969,POINT (-8230514.420399999 4968735.6696000025)
84K517,Uncommon Bed-Stuy West Charter School NYC,Brooklyn,84,517,40.68192,-73.9456,POINT (-8231586.5384 4965537.541299999)
84K593,Uncommon Excellence Boys Charter School NYC,Brooklyn,84,593,40.683446,-73.925851,POINT (-8229388.0898 4965761.550999999)
84K608,Uncommon Kings Charter School NYC,Brooklyn,84,608,40.657712,-73.919818,POINT (-8228716.499299999 4961984.606200002)
84K626,Achievement First Brownsville Charter School,Brooklyn,84,626,40.674456,-73.912685,POINT (-8227922.4574 4964441.935000002)
84K652,Brooklyn Ascend Charter School,Brooklyn,84,652,40.661945,-73.92044,POINT (-8228785.74 4962605.777800001)
84K680,Achievement First Aspire Charter School,Brooklyn,84,680,40.665817,-73.876084,POINT (-8223848.0527 4963174.009000003)
84K693,Northside Charter High School,Brooklyn,84,693,40.719818,-73.947932,POINT (-8231846.135500001 4971102.308799997)
84K712,Uncommon Excellence Girls Charter School NYC,Brooklyn,84,712,40.6881,-73.924422,POINT (-8229229.0142 4966444.767999999)
84K730,Summit Academy Charter School,Brooklyn,84,730,40.677914,-74.005151,POINT (-8238215.725400001 4964949.503700003)
84K733,"Math, Engineering, and Science Academy Charter High School",Brooklyn,84,733,40.695875,-73.915217,POINT (-8228204.318299999 4967586.260899998)
84K738,United Charter High School for Advanced Math and Science lll,Brooklyn,84,738,40.593157,-73.936635,POINT (-8230588.5592 4952516.361400001)
84K744,Coney Island Preparatory Public Charter School,Brooklyn,84,744,40.582518,-73.972009,POINT (-8234526.3748 4950956.823100001)
84K757,Unity Preparatory Charter School of Brooklyn,Brooklyn,84,757,40.686213,-73.940859,POINT (-8231058.772700001 4966167.746699996)
84K775,Uncommon Brownsville North Charter School NYC,Brooklyn,84,775,40.672216,-73.906018,POINT (-8227180.2903 4964113.159599997)
84K782,Bedford Stuyvesant New Beginnings Charter School,Brooklyn,84,782,40.694676,-73.937717,POINT (-8230709.006899999 4967410.2201000005)
84K803,Brooklyn Laboratory Charter School,Brooklyn,84,803,40.70043,-73.987399,POINT (-8236239.581800001 4968255.068800002)
84K892,Brooklyn Emerging Leaders Academy Charter School,Brooklyn,84,892,40.691467,-73.932254,POINT (-8230100.8685 4966939.080499999)
84K928,Brooklyn Prospect Charter School - CSD 15.2,Brooklyn,84,928,40.647893,-73.97872,POINT (-8235273.4399 4960543.868699998)
84M202,Great Oaks Kathleen Sherry Charter School,Manhattan,84,202,40.730564,-74.0029,POINT (-8237965.145199999 4972680.778300002)
84M204,Capital Preparatory Harlem Charter School,Manhattan,84,204,40.808339,-73.938735,POINT (-8230822.3301 4984112.680699997)
84M279,Opportunity Charter School,Manhattan,84,279,40.801573,-73.955583,POINT (-8232697.8409 4983117.636)
84M284,Harlem Children's Zone Promise Academy Charter School,Manhattan,84,284,40.811882,-73.947317,POINT (-8231777.674000001 4984633.7739999965)
84M295,School in the Square Public Charter School,Manhattan,84,295,40.848864,-73.936073,POINT (-8230525.9976 4990074.632200003)
84M341,Harlem Children's Zone Promise Academy II Charter School,Manhattan,84,341,40.806139,-73.940871,POINT (-8231060.1085 4983789.125600003)
84M350,Democracy Preparatory Charter School,Manhattan,84,350,40.813532,-73.938347,POINT (-8230779.1381 4984876.4602999985)
84M351,Success Academy Charter School - Harlem 1,Manhattan,84,351,40.802649,-73.948088,POINT (-8231863.5013 4983275.871600002)
84M353,New Heights Academy Charter School,Manhattan,84,353,40.82884,-73.945368,POINT (-8231560.712300001 4987128.288699999)
84M389,KIPP Beyond Charter School,Manhattan,84,389,40.811107,-73.960761,POINT (-8233274.2532 4984519.7870000005)
84M433,Innovation Charter High School,Manhattan,84,433,40.785107,-73.942154,POINT (-8231202.931399999 4980696.480300002)
84M478,Inwood Academy for Leadership Charter School,Manhattan,84,478,40.865508,-73.918591,POINT (-8228579.9103 4992524.3182)
84M481,Democracy Preparatory Harlem Charter School,Manhattan,84,481,40.814598,-73.945,POINT (-8231519.7467 4985033.2535)
84M518,East Harlem Scholars Academy Charter School,Manhattan,84,518,40.79001,-73.942482,POINT (-8231239.4442 4981417.3532000035)
84M522,Broome Street Academy Charter High School,Manhattan,84,522,40.723911,-74.004692,POINT (-8238164.629799999 4971703.495499998)
84M708,Harlem Prep Charter School,Manhattan,84,708,40.801547,-73.935335,POINT (-8230443.843800001 4983113.8125)
84M709,Harlem Village Academy North Charter School,Manhattan,84,709,40.821208,-73.941111,POINT (-8231086.825200001 4986005.545699999)
84Q320,United Charter High School for Advanced Math and Science lV,Queens,84,320,40.673949,-73.782684,POINT (-8213450.8122000005 4964367.519299999)
84Q340,Challenge Preparatory Charter School,Queens,84,340,40.600137,-73.764065,POINT (-8211378.1546 4953539.672899999)
84Q373,United Charter High School for the Humanities lV,Queens,84,373,40.586012,-73.825317,POINT (-8218196.6961 4951468.970399998)
84Q380,Forte Preparatory Academy Charter School,Queens,84,380,40.737387,-73.87786,POINT (-8224045.756100001 4973683.134400003)
84Q414,Renaissance Charter School 2,Queens,84,414,40.741153,-73.881555,POINT (-8224457.081599999 4974236.435599998)
84Q705,Renaissance Charter School,Queens,84,705,40.749934,-73.884817,POINT (-8224820.205800001 4975526.662799999)
84R067,John W. Lavelle Preparatory Charter School,Staten Island,84,67,40.605658,-74.180964,POINT (-8257787.139 4954349.161600001)
84R070,Lois and Richard Nicotra Early College Charter School,Staten Island,84,70,40.605658,-74.180964,POINT (-8257787.139 4954349.161600001)
84R083,Richmond Preparatory Charter School,Staten Island,84,83,40.605658,-74.180964,POINT (-8257787.139 4954349.161600001)
84X185,Pharos Academy Charter School,Bronx,84,185,40.823228,-73.897394,POINT (-8226220.271 4986302.695200004)
84X202,United Charter High School for Advanced Math and Science ll,Bronx,84,202,40.821723,-73.902892,POINT (-8226832.305600001 4986081.303300001)
84X208,United Charter High School for the Humanities II,Bronx,84,208,40.821723,-73.902892,POINT (-8226832.305600001 4986081.303300001)
84X309,South Bronx Charter School for International Cultures and the Arts,Bronx,84,309,40.803052,-73.918037,POINT (-8228518.2393 4983335.137100004)
84X345,Leaders In Our Neighborhood Charter School,Bronx,84,345,40.815827,-73.885284,POINT (-8224872.192 4985214.024899997)
84X347,International Leadership Charter High School,Bronx,84,347,40.880853,-73.909955,POINT (-8227618.555199999 4994783.361100003)
84X380,Success Academy Charter School - Bronx 3,Bronx,84,380,40.827438,-73.914067,POINT (-8228076.300899999 4986922.0309000015)
84X387,Brilla College Preparatory Charter School,Bronx,84,387,40.812804,-73.919316,POINT (-8228660.616900001 4984769.383400001)
84X393,University Prep Charter High School,Bronx,84,393,40.814857,-73.912038,POINT (-8227850.433700001 4985071.349100001)
84X395,"NYC Charter High School for Architecture, Engineering and Construction Industries",Bronx,84,395,40.821682,-73.910421,POINT (-8227670.43 4986075.272100002)
84X429,Charter High School for Law and Social Justice,Bronx,84,429,40.853728,-73.911708,POINT (-8227813.6982 4990790.458499998)
84X460,Atmosphere Academy Public Charter School,Bronx,84,460,40.875161,-73.910426,POINT (-8227670.9866 4993945.341600001)
84X461,Nuasin Next Generation Charter School,Bronx,84,461,40.834599,-73.929797,POINT (-8229827.3565 4987975.580200002)
84X465,Boys Preparatory Charter School of New York,Bronx,84,465,40.820298,-73.927397,POINT (-8229560.1897 4985871.684299998)
84X471,American Dream Charter School,Bronx,84,471,40.809023,-73.917417,POINT (-8228449.2212000005 4984213.279100001)
84X482,Dr. Richard Izquierdo Health and Science Charter School,Bronx,84,482,40.826933,-73.900593,POINT (-8226576.382099999 4986847.737899996)
84X487,Girls Preparatory Charter School of the Bronx,Bronx,84,487,40.816078,-73.901599,POINT (-8226688.3695 4985250.944399998)
84X488,The Equality Charter School,Bronx,84,488,40.864073,-73.823816,POINT (-8218029.6055 4992313.0886999965)
84X539,United Charter High School for Advanced Math and Science,Bronx,84,539,40.877379,-73.912686,POINT (-8227922.568700001 4994271.8838)
84X553,United Charter High School for the Humanities,Bronx,84,553,40.877379,-73.912686,POINT (-8227922.568700001 4994271.8838)
84X581,South Bronx Community Charter High School,Bronx,84,581,40.828578,-73.908399,POINT (-8227445.342 4987089.743699998)
84X585,Legacy College Preparatory Charter School,Bronx,84,585,40.813077,-73.919979,POINT (-8228734.421700001 4984809.537100002)
84X597,Urban Assembly Charter School for Computer Science,Bronx,84,597,40.832508,-73.878191,POINT (-8224082.6028 4987667.933799997)
84X611,AECI II: NYC Charter High School for Computer Engineering and Innovation,Bronx,84,611,40.836945,-73.917332,POINT (-8228439.759 4988320.756099999)
84X614,Dream Charter School Mott Haven,Bronx,84,614,40.807365,-73.928762,POINT (-8229712.140799999 4983969.432700001)
84X617,KIPP Bronx Charter School III,Bronx,84,617,40.818347,-73.929502,POINT (-8229794.517200001 4985584.697499998)
84X627,Capital Preparatory Bronx Charter School,Bronx,84,627,40.879852,-73.826791,POINT (-8218360.7809999995 4994635.980999999)
84X635,Earl Monroe New Renaissance Basketball Charter School,Bronx,84,635,40.845321,-73.827252,POINT (-8218412.099300001 4989553.248199999)
84X640,Family Life Academy Charter Schools High School,Bronx,84,640,40.823695,-73.910589,POINT (-8227689.1317 4986371.3939)
84X648,Girls Preparatory Charter School of New York,Bronx,84,648,40.729152,-73.982472,POINT (-8235691.1107 4972473.356399998)
84X649,Democracy Preparatory Endurance Charter School,Bronx,84,649,40.801547,-73.935335,POINT (-8230443.843800001 4983113.8125)
84X703,Bronx Preparatory Charter School,Bronx,84,703,40.839072,-73.900123,POINT (-8226524.061899999 4988633.720200002)
84X704,KIPP Academy Charter School,Bronx,84,704,40.822574,-73.92114,POINT (-8228863.663699999 4986206.488399997)
